LEMUR-2-LEIA-PHILIP     
1 63246U 25052AN  26204.15555409  .00000929  00000+0  84898-4 0  9993
2 63246  97.6784  95.4948 0005108 103.2748 256.9044 14.97399507 74052
LEMUR-2-LIA-MARTIN      
1 63248U 25052AQ  26204.14664546  .00003487  00000+0  29966-3 0  9993
2 63248  97.6843  96.0188 0004639  70.2989 289.8734 14.98066177 74068
LEMUR-2-DELOITTE-1      
1 63259U 25052BB  26203.92797230  .00003870  00000+0  33410-3 0  9992
2 63259  97.6886  96.1336 0002516  54.3603 305.7853 14.97828481 74042
LEMUR-2-EMERSONROSE     
1 63261U 25052BD  26204.13458882  .00003496  00000+0  29085-3 0  9993
2 63261  97.6884  96.9686 0002204  40.2656 319.8730 14.99336545 74121
LEMUR-2-MARACHE-FRAN    
1 63262U 25052BE  26203.68506429  .00003943  00000+0  31877-3 0  9993
2 63262  97.6810  96.8982 0006115 223.0553 137.0193 15.00352389 74086
LEMUR-2-THEFALCONER     
1 63264U 25052BG  26204.16005586  .00003178  00000+0  27695-3 0  9990
2 63264  97.6806  95.9434 0001060 198.3787 161.7397 14.97592836 74079
LEMUR-2-UNTITLED-SC     
1 63351U 25061A   26203.92043416  .00003268  00000+0  18451-3 0  9994
2 63351  97.5660 179.0313 0019933 137.6189 222.6586 15.13683344 72993
LEMUR-2-ESPERANZA       
1 63352U 25061B   26203.89522782  .00003464  00000+0  19479-3 0  9998
2 63352  97.5667 179.1083 0019556 137.0188 223.2575 15.13788423 72999
LEMUR-2-KREMPEL-BRO2    
1 63353U 25061C   26204.24244001  .00003401  00000+0  18894-3 0  9995
2 63353  97.5714 180.0325 0020663 128.9573 231.3504 15.14219535 73066
LEMUR-2-THERMORAPTOR    
1 63354U 25061D   26203.89216254  .00003826  00000+0  21164-3 0  9990
2 63354  97.5719 179.7666 0020374 129.0530 231.2519 15.14300300 73010
LEMUR-2-NEUROSPICY      
1 63355U 25061E   26203.92714826  .00003469  00000+0  19179-3 0  9999
2 63355  97.5645 179.4000 0018216 131.8778 228.4012 15.14419013 73024
LEMUR-2-TILLINFINITY    
1 63356U 25061F   26203.88258508  .00004666  00000+0  25228-3 0  9997
2 63356  97.5632 179.6712 0019614 121.1672 239.1486 15.15007927 73045
LEMUR-2-KREMPEL-BRO1    
1 63357U 25061G   26203.72850690  .00003314  00000+0  18122-3 0  9995
2 63357  97.5632 179.4240 0020258 122.9596 237.3587 15.14808413 73017
LEMUR-2-LANGER2SPACE    
1 63358U 25061H   26203.89429564  .00003665  00000+0  20196-3 0  9999
2 63358  97.5638 179.3885 0018094 130.2936 229.9881 15.14503456 73027
LEMUR-2-BALTO           
1 63395U 25052BH  26204.13598507  .00004110  00000+0  33166-3 0  9999
2 63395  97.6918  97.3434 0004982 291.9458  68.1236 15.00411739 74153
LEMUR-2-KRISH           
1 64561U 25135AK  26204.25111866  .00004779  00000+0  42578-3 0  9997
2 64561  97.7759 318.8902 0001281 111.7125 248.4232 14.96495024 59316
