{"fetched_at":"2026-07-23T17:55:13.276Z","source":"https://celestrak.org/NORAD/elements/gp.php?GROUP=spire&FORMAT=JSON","constellation":"spire","records":[{"OBJECT_NAME":"LEMUR-2-LEIA-PHILIP","OBJECT_ID":"2025-052AN","EPOCH":"2026-07-23T03:43:59.873376","CLASSIFICATION_TYPE":"U","MEAN_MOTION":14.97399507,"ECCENTRICITY":0.00051082,"INCLINATION":97.6784,"RA_OF_ASC_NODE":95.4948,"ARG_OF_PERICENTER":103.2748,"MEAN_ANOMALY":256.9044,"EPHEMERIS_TYPE":0,"NORAD_CAT_ID":63246,"ELEMENT_SET_NO":999,"REV_AT_EPOCH":7405,"BSTAR":0.000084897625,"MEAN_MOTION_DOT":0.00000929,"MEAN_MOTION_DDOT":0},{"OBJECT_NAME":"LEMUR-2-LIA-MARTIN","OBJECT_ID":"2025-052AQ","EPOCH":"2026-07-23T03:31:10.167744","CLASSIFICATION_TYPE":"U","MEAN_MOTION":14.98066177,"ECCENTRICITY":0.00046398,"INCLINATION":97.6843,"RA_OF_ASC_NODE":96.0188,"ARG_OF_PERICENTER":70.2989,"MEAN_ANOMALY":289.8734,"EPHEMERIS_TYPE":0,"NORAD_CAT_ID":63248,"ELEMENT_SET_NO":999,"REV_AT_EPOCH":7406,"BSTAR":0.0002996582,"MEAN_MOTION_DOT":0.00003487,"MEAN_MOTION_DDOT":0},{"OBJECT_NAME":"LEMUR-2-DELOITTE-1","OBJECT_ID":"2025-052BB","EPOCH":"2026-07-22T22:16:16.806720","CLASSIFICATION_TYPE":"U","MEAN_MOTION":14.97828481,"ECCENTRICITY":0.00025168,"INCLINATION":97.6886,"RA_OF_ASC_NODE":96.1336,"ARG_OF_PERICENTER":54.3603,"MEAN_ANOMALY":305.7853,"EPHEMERIS_TYPE":0,"NORAD_CAT_ID":63259,"ELEMENT_SET_NO":999,"REV_AT_EPOCH":7404,"BSTAR":0.00033409558,"MEAN_MOTION_DOT":0.0000387,"MEAN_MOTION_DDOT":0},{"OBJECT_NAME":"LEMUR-2-EMERSONROSE","OBJECT_ID":"2025-052BD","EPOCH":"2026-07-23T03:13:48.474048","CLASSIFICATION_TYPE":"U","MEAN_MOTION":14.99336545,"ECCENTRICITY":0.00022045,"INCLINATION":97.6884,"RA_OF_ASC_NODE":96.9686,"ARG_OF_PERICENTER":40.2656,"MEAN_ANOMALY":319.873,"EPHEMERIS_TYPE":0,"NORAD_CAT_ID":63261,"ELEMENT_SET_NO":999,"REV_AT_EPOCH":7412,"BSTAR":0.00029084977,"MEAN_MOTION_DOT":0.00003496,"MEAN_MOTION_DDOT":0},{"OBJECT_NAME":"LEMUR-2-MARACHE-FRAN","OBJECT_ID":"2025-052BE","EPOCH":"2026-07-22T16:26:29.554656","CLASSIFICATION_TYPE":"U","MEAN_MOTION":15.00352389,"ECCENTRICITY":0.00061158,"INCLINATION":97.681,"RA_OF_ASC_NODE":96.8982,"ARG_OF_PERICENTER":223.0553,"MEAN_ANOMALY":137.0193,"EPHEMERIS_TYPE":0,"NORAD_CAT_ID":63262,"ELEMENT_SET_NO":999,"REV_AT_EPOCH":7408,"BSTAR":0.00031877406,"MEAN_MOTION_DOT":0.00003943,"MEAN_MOTION_DDOT":0},{"OBJECT_NAME":"LEMUR-2-THEFALCONER","OBJECT_ID":"2025-052BG","EPOCH":"2026-07-23T03:50:28.826304","CLASSIFICATION_TYPE":"U","MEAN_MOTION":14.97592836,"ECCENTRICITY":0.00010603,"INCLINATION":97.6806,"RA_OF_ASC_NODE":95.9434,"ARG_OF_PERICENTER":198.3787,"MEAN_ANOMALY":161.7397,"EPHEMERIS_TYPE":0,"NORAD_CAT_ID":63264,"ELEMENT_SET_NO":999,"REV_AT_EPOCH":7407,"BSTAR":0.00027694659,"MEAN_MOTION_DOT":0.00003178,"MEAN_MOTION_DDOT":0},{"OBJECT_NAME":"LEMUR-2-UNTITLED-SC","OBJECT_ID":"2025-061A","EPOCH":"2026-07-22T22:05:25.511424","CLASSIFICATION_TYPE":"U","MEAN_MOTION":15.13683344,"ECCENTRICITY":0.00199339,"INCLINATION":97.566,"RA_OF_ASC_NODE":179.0313,"ARG_OF_PERICENTER":137.6189,"MEAN_ANOMALY":222.6586,"EPHEMERIS_TYPE":0,"NORAD_CAT_ID":63351,"ELEMENT_SET_NO":999,"REV_AT_EPOCH":7299,"BSTAR":0.00018451061,"MEAN_MOTION_DOT":0.00003268,"MEAN_MOTION_DDOT":0},{"OBJECT_NAME":"LEMUR-2-ESPERANZA","OBJECT_ID":"2025-061B","EPOCH":"2026-07-22T21:29:07.683648","CLASSIFICATION_TYPE":"U","MEAN_MOTION":15.13788423,"ECCENTRICITY":0.00195564,"INCLINATION":97.5667,"RA_OF_ASC_NODE":179.1083,"ARG_OF_PERICENTER":137.0188,"MEAN_ANOMALY":223.2575,"EPHEMERIS_TYPE":0,"NORAD_CAT_ID":63352,"ELEMENT_SET_NO":999,"REV_AT_EPOCH":7299,"BSTAR":0.00019479,"MEAN_MOTION_DOT":0.00003464,"MEAN_MOTION_DDOT":0},{"OBJECT_NAME":"LEMUR-2-KREMPEL-BRO2","OBJECT_ID":"2025-061C","EPOCH":"2026-07-23T05:49:06.816864","CLASSIFICATION_TYPE":"U","MEAN_MOTION":15.14219535,"ECCENTRICITY":0.00206635,"INCLINATION":97.5714,"RA_OF_ASC_NODE":180.0325,"ARG_OF_PERICENTER":128.9573,"MEAN_ANOMALY":231.3504,"EPHEMERIS_TYPE":0,"NORAD_CAT_ID":63353,"ELEMENT_SET_NO":999,"REV_AT_EPOCH":7306,"BSTAR":0.00018893865,"MEAN_MOTION_DOT":0.00003401,"MEAN_MOTION_DDOT":0},{"OBJECT_NAME":"LEMUR-2-THERMORAPTOR","OBJECT_ID":"2025-061D","EPOCH":"2026-07-22T21:24:42.843456","CLASSIFICATION_TYPE":"U","MEAN_MOTION":15.143003,"ECCENTRICITY":0.00203749,"INCLINATION":97.5719,"RA_OF_ASC_NODE":179.7666,"ARG_OF_PERICENTER":129.053,"MEAN_ANOMALY":231.2519,"EPHEMERIS_TYPE":0,"NORAD_CAT_ID":63354,"ELEMENT_SET_NO":999,"REV_AT_EPOCH":7301,"BSTAR":0.00021164138,"MEAN_MOTION_DOT":0.00003826,"MEAN_MOTION_DDOT":0},{"OBJECT_NAME":"LEMUR-2-NEUROSPICY","OBJECT_ID":"2025-061E","EPOCH":"2026-07-22T22:15:05.609664","CLASSIFICATION_TYPE":"U","MEAN_MOTION":15.14419013,"ECCENTRICITY":0.00182162,"INCLINATION":97.5645,"RA_OF_ASC_NODE":179.4,"ARG_OF_PERICENTER":131.8778,"MEAN_ANOMALY":228.4012,"EPHEMERIS_TYPE":0,"NORAD_CAT_ID":63355,"ELEMENT_SET_NO":999,"REV_AT_EPOCH":7302,"BSTAR":0.00019179429,"MEAN_MOTION_DOT":0.00003469,"MEAN_MOTION_DDOT":0},{"OBJECT_NAME":"LEMUR-2-TILLINFINITY","OBJECT_ID":"2025-061F","EPOCH":"2026-07-22T21:10:55.350912","CLASSIFICATION_TYPE":"U","MEAN_MOTION":15.15007927,"ECCENTRICITY":0.0019614,"INCLINATION":97.5632,"RA_OF_ASC_NODE":179.6712,"ARG_OF_PERICENTER":121.1672,"MEAN_ANOMALY":239.1486,"EPHEMERIS_TYPE":0,"NORAD_CAT_ID":63356,"ELEMENT_SET_NO":999,"REV_AT_EPOCH":7304,"BSTAR":0.00025228389,"MEAN_MOTION_DOT":0.00004666,"MEAN_MOTION_DDOT":0},{"OBJECT_NAME":"LEMUR-2-KREMPEL-BRO1","OBJECT_ID":"2025-061G","EPOCH":"2026-07-22T17:29:02.996160","CLASSIFICATION_TYPE":"U","MEAN_MOTION":15.14808413,"ECCENTRICITY":0.00202589,"INCLINATION":97.5632,"RA_OF_ASC_NODE":179.424,"ARG_OF_PERICENTER":122.9596,"MEAN_ANOMALY":237.3587,"EPHEMERIS_TYPE":0,"NORAD_CAT_ID":63357,"ELEMENT_SET_NO":999,"REV_AT_EPOCH":7301,"BSTAR":0.0001812237,"MEAN_MOTION_DOT":0.00003314,"MEAN_MOTION_DDOT":0},{"OBJECT_NAME":"LEMUR-2-LANGER2SPACE","OBJECT_ID":"2025-061H","EPOCH":"2026-07-22T21:27:47.143296","CLASSIFICATION_TYPE":"U","MEAN_MOTION":15.14503456,"ECCENTRICITY":0.00180948,"INCLINATION":97.5638,"RA_OF_ASC_NODE":179.3885,"ARG_OF_PERICENTER":130.2936,"MEAN_ANOMALY":229.9881,"EPHEMERIS_TYPE":0,"NORAD_CAT_ID":63358,"ELEMENT_SET_NO":999,"REV_AT_EPOCH":7302,"BSTAR":0.00020195941,"MEAN_MOTION_DOT":0.00003665,"MEAN_MOTION_DDOT":0},{"OBJECT_NAME":"LEMUR-2-BALTO","OBJECT_ID":"2025-052BH","EPOCH":"2026-07-23T03:15:49.110048","CLASSIFICATION_TYPE":"U","MEAN_MOTION":15.00411739,"ECCENTRICITY":0.00049829,"INCLINATION":97.6918,"RA_OF_ASC_NODE":97.3434,"ARG_OF_PERICENTER":291.9458,"MEAN_ANOMALY":68.1236,"EPHEMERIS_TYPE":0,"NORAD_CAT_ID":63395,"ELEMENT_SET_NO":999,"REV_AT_EPOCH":7415,"BSTAR":0.00033165661,"MEAN_MOTION_DOT":0.0000411,"MEAN_MOTION_DDOT":0},{"OBJECT_NAME":"LEMUR-2-KRISH","OBJECT_ID":"2025-135AK","EPOCH":"2026-07-23T06:01:36.652224","CLASSIFICATION_TYPE":"U","MEAN_MOTION":14.96495024,"ECCENTRICITY":0.00012818,"INCLINATION":97.7759,"RA_OF_ASC_NODE":318.8902,"ARG_OF_PERICENTER":111.7125,"MEAN_ANOMALY":248.4232,"EPHEMERIS_TYPE":0,"NORAD_CAT_ID":64561,"ELEMENT_SET_NO":999,"REV_AT_EPOCH":5931,"BSTAR":0.00042577693,"MEAN_MOTION_DOT":0.00004779,"MEAN_MOTION_DDOT":0}]}
